{
    "links": {
        "self": "http://www.neowsapp.com/rest/v1/neo/3627107?api_key=iIulBulltgU6a56xZRHN4H3l9WmuAYTsLGpBGhQ2"
    },
    "id": "3627107",
    "neo_reference_id": "3627107",
    "name": "(2013 DY)",
    "designation": "2013 DY",
    "nasa_jpl_url": "http://ssd.jpl.nasa.gov/sbdb.cgi?sstr=3627107",
    "absolute_magnitude_h": 25.6,
    "estimated_diameter": {
        "kilometers": {
            "estimated_diameter_min": 0.0201629919,
            "estimated_diameter_max": 0.0450858206
        },
        "meters": {
            "estimated_diameter_min": 20.1629919443,
            "estimated_diameter_max": 45.0858206172
        },
        "miles": {
            "estimated_diameter_min": 0.0125286985,
            "estimated_diameter_max": 0.0280150214
        },
        "feet": {
            "estimated_diameter_min": 66.1515504905,
            "estimated_diameter_max": 147.9193637137
        }
    },
    "is_potentially_hazardous_asteroid": false,
    "close_approach_data": [
        {
            "close_approach_date": "2013-02-16",
            "close_approach_date_full": "2013-Feb-16 20:26",
            "epoch_date_close_approach": 1361046360000,
            "relative_velocity": {
                "kilometers_per_second": "6.2127969649",
                "kilometers_per_hour": "22366.0690735639",
                "miles_per_hour": "13897.4055307375"
            },
            "miss_distance": {
                "astronomical": "0.0705326387",
                "lunar": "27.4371964543",
                "kilometers": "10551532.514999569",
                "miles": "6556418.2796652922"
            },
            "orbiting_body": "Earth"
        },
        {
            "close_approach_date": "2021-02-18",
            "close_approach_date_full": "2021-Feb-18 11:33",
            "epoch_date_close_approach": 1613647980000,
            "relative_velocity": {
                "kilometers_per_second": "6.6313315036",
                "kilometers_per_hour": "23872.7934131055",
                "miles_per_hour": "14833.6254404933"
            },
            "miss_distance": {
                "astronomical": "0.0890934258",
                "lunar": "34.6573426362",
                "kilometers": "13328186.730683046",
                "miles": "8281751.2045401948"
            },
            "orbiting_body": "Earth"
        }
    ],
    "orbital_data": {
        "orbit_id": "6",
        "orbit_determination_date": "2017-04-06 08:46:43",
        "first_observation_date": "2013-02-17",
        "last_observation_date": "2013-03-05",
        "data_arc_in_days": 16,
        "observations_used": 30,
        "orbit_uncertainty": "8",
        "minimum_orbit_intersection": ".0702429",
        "jupiter_tisserand_invariant": "4.782",
        "epoch_osculation": "2456343.5",
        "eccentricity": ".2315874354989623",
        "semi_major_axis": "1.368732845447219",
        "inclination": "10.67778294414382",
        "ascending_node_longitude": "331.7412999645275",
        "orbital_period": "584.8930495798149",
        "perihelion_distance": "1.0517515158869",
        "perihelion_argument": "162.7423491492889",
        "aphelion_distance": "1.685714175007538",
        "perihelion_time": "2456327.292241759236",
        "mean_anomaly": "9.975828864553502",
        "mean_motion": ".615497141329723",
        "equinox": "J2000",
        "orbit_class": {
            "orbit_class_type": "AMO",
            "orbit_class_description": "Near-Earth asteroid orbits similar to that of 1221 Amor",
            "orbit_class_range": "1.017 AU < q (perihelion) < 1.3 AU"
        }
    },
    "is_sentry_object": false
}